[{"OBJECT_NAME":"STARLINK-30421","OBJECT_ID":"2023-161L","EPOCH":"2026-03-09T23:06:17.646336","MEAN_MOTION":15.30198109,"ECCENTRICITY":8.154e-5,"INCLINATION":53.1582,"RA_OF_ASC_NODE":151.2802,"ARG_OF_PERICENTER":63.1069,"MEAN_ANOMALY":297.0015,"EPHEMERIS_TYPE":0,"CLASSIFICATION_TYPE":"U","NORAD_CAT_ID":58107,"ELEMENT_SET_NO":999,"REV_AT_EPOCH":13464,"BSTAR":0.00012746632,"MEAN_MOTION_DOT":3.418e-5,"MEAN_MOTION_DDOT":0},{"OBJECT_NAME":"HERMES-3","OBJECT_ID":"2025-052BR","EPOCH":"2026-03-09T22:30:01.073952","MEAN_MOTION":15.30039786,"ECCENTRICITY":0.00079928,"INCLINATION":97.3987,"RA_OF_ASC_NODE":324.6131,"ARG_OF_PERICENTER":112.9583,"MEAN_ANOMALY":247.2502,"EPHEMERIS_TYPE":0,"CLASSIFICATION_TYPE":"U","NORAD_CAT_ID":63835,"ELEMENT_SET_NO":999,"REV_AT_EPOCH":5486,"BSTAR":0.0006995793,"MEAN_MOTION_DOT":0.00020316,"MEAN_MOTION_DDOT":0}]
